{"fetched_at":"2026-07-18T06:28:27.138Z","source":"https://celestrak.org/NORAD/elements/gp.php?NAME=SENTINEL&FORMAT=JSON","constellation":"sentinel-2","records":[{"OBJECT_NAME":"SENTINEL-2A","OBJECT_ID":"2015-028A","EPOCH":"2026-07-17T21:56:09.949920","CLASSIFICATION_TYPE":"U","MEAN_MOTION":14.30814033,"ECCENTRICITY":0.00013032,"INCLINATION":98.5677,"RA_OF_ASC_NODE":273.3278,"ARG_OF_PERICENTER":94.5393,"MEAN_ANOMALY":265.5939,"EPHEMERIS_TYPE":0,"NORAD_CAT_ID":40697,"ELEMENT_SET_NO":999,"REV_AT_EPOCH":57812,"BSTAR":-0.000041526971,"MEAN_MOTION_DOT":-0.00000152,"MEAN_MOTION_DDOT":0},{"OBJECT_NAME":"SENTINEL-2B","OBJECT_ID":"2017-013A","EPOCH":"2026-07-17T23:26:30.629760","CLASSIFICATION_TYPE":"U","MEAN_MOTION":14.30815236,"ECCENTRICITY":0.00012186,"INCLINATION":98.5684,"RA_OF_ASC_NODE":273.3151,"ARG_OF_PERICENTER":92.0641,"MEAN_ANOMALY":268.0681,"EPHEMERIS_TYPE":0,"NORAD_CAT_ID":42063,"ELEMENT_SET_NO":999,"REV_AT_EPOCH":48904,"BSTAR":0.000005434685,"MEAN_MOTION_DOT":-2.9e-7,"MEAN_MOTION_DDOT":0},{"OBJECT_NAME":"SENTINEL-2C","OBJECT_ID":"2024-157A","EPOCH":"2026-07-17T19:14:46.974912","CLASSIFICATION_TYPE":"U","MEAN_MOTION":14.30816119,"ECCENTRICITY":0.00010119,"INCLINATION":98.5683,"RA_OF_ASC_NODE":273.1491,"ARG_OF_PERICENTER":105.017,"MEAN_ANOMALY":255.1125,"EPHEMERIS_TYPE":0,"NORAD_CAT_ID":60989,"ELEMENT_SET_NO":999,"REV_AT_EPOCH":9736,"BSTAR":0.000033446937,"MEAN_MOTION_DOT":4.4e-7,"MEAN_MOTION_DDOT":0}]}
