SENTINEL-2A             
1 40697U 15028A   26198.91400405 -.00000152  00000+0 -41527-4 0  9993
2 40697  98.5677 273.3278 0001303  94.5393 265.5939 14.30814033578121
SENTINEL-2B             
1 42063U 17013A   26198.97674340 -.00000029  00000+0  54347-5 0  9992
2 42063  98.5684 273.3151 0001218  92.0641 268.0681 14.30815236489042
SENTINEL-2C             
1 60989U 24157A   26198.80193258  .00000044  00000+0  33447-4 0  9995
2 60989  98.5683 273.1491 0001011 105.0170 255.1125 14.30816119 97367
